[{"OBJECT_NAME":"SL-14 R/B","OBJECT_ID":"1986-006B","EPOCH":"2026-04-19T07:16:40.432800","MEAN_MOTION":14.86883141,"ECCENTRICITY":0.00775415,"INCLINATION":82.5285,"RA_OF_ASC_NODE":221.5128,"ARG_OF_PERICENTER":137.2861,"MEAN_ANOMALY":223.442,"EPHEMERIS_TYPE":0,"CLASSIFICATION_TYPE":"U","NORAD_CAT_ID":16496,"ELEMENT_SET_NO":999,"REV_AT_EPOCH":15524,"BSTAR":5.6648041e-5,"MEAN_MOTION_DOT":5.62e-6,"MEAN_MOTION_DDOT":0},{"OBJECT_NAME":"COSMOS 1743","OBJECT_ID":"1986-034A","EPOCH":"2026-04-19T01:04:57.218880","MEAN_MOTION":15.62067598,"ECCENTRICITY":0.00072932,"INCLINATION":82.5329,"RA_OF_ASC_NODE":31.3653,"ARG_OF_PERICENTER":118.6671,"MEAN_ANOMALY":241.5321,"EPHEMERIS_TYPE":0,"CLASSIFICATION_TYPE":"U","NORAD_CAT_ID":16719,"ELEMENT_SET_NO":999,"REV_AT_EPOCH":18654,"BSTAR":0.00048687958,"MEAN_MOTION_DOT":0.00042787,"MEAN_MOTION_DDOT":0},{"OBJECT_NAME":"SL-14 R/B","OBJECT_ID":"1986-046B","EPOCH":"2026-04-19T05:16:31.502784","MEAN_MOTION":14.85629321,"ECCENTRICITY":0.00246864,"INCLINATION":82.4839,"RA_OF_ASC_NODE":41.8844,"ARG_OF_PERICENTER":93.7602,"MEAN_ANOMALY":266.6438,"EPHEMERIS_TYPE":0,"CLASSIFICATION_TYPE":"U","NORAD_CAT_ID":16792,"ELEMENT_SET_NO":999,"REV_AT_EPOCH":13242,"BSTAR":3.5230266e-5,"MEAN_MOTION_DOT":3.31e-6,"MEAN_MOTION_DDOT":0},{"OBJECT_NAME":"SL-14 R/B","OBJECT_ID":"1986-055B","EPOCH":"2026-04-19T04:54:24.003072","MEAN_MOTION":14.8567795,"ECCENTRICITY":0.00184418,"INCLINATION":82.5178,"RA_OF_ASC_NODE":88.5791,"ARG_OF_PERICENTER":193.3997,"MEAN_ANOMALY":177.1174,"EPHEMERIS_TYPE":0,"CLASSIFICATION_TYPE":"U","NORAD_CAT_ID":16882,"ELEMENT_SET_NO":999,"REV_AT_EPOCH":12538,"BSTAR":3.2409889e-5,"MEAN_MOTION_DOT":3.06e-6,"MEAN_MOTION_DDOT":0},{"OBJECT_NAME":"AJISAI (EGS)","OBJECT_ID":"1986-061A","EPOCH":"2026-04-19T06:43:06.259584","MEAN_MOTION":12.44515843,"ECCENTRICITY":0.00114081,"INCLINATION":50.011,"RA_OF_ASC_NODE":328.5357,"ARG_OF_PERICENTER":31.239,"MEAN_ANOMALY":80.397,"EPHEMERIS_TYPE":0,"CLASSIFICATION_TYPE":"U","NORAD_CAT_ID":16908,"ELEMENT_SET_NO":999,"REV_AT_EPOCH":47305,"BSTAR":6.3947508e-5,"MEAN_MOTION_DOT":-8.8e-7,"MEAN_MOTION_DDOT":0},{"OBJECT_NAME":"SL-14 R/B","OBJECT_ID":"1987-024B","EPOCH":"2026-04-18T13:33:51.710112","MEAN_MOTION":14.86170086,"ECCENTRICITY":0.0019507,"INCLINATION":82.5288,"RA_OF_ASC_NODE":55.2792,"ARG_OF_PERICENTER":125.7281,"MEAN_ANOMALY":234.5754,"EPHEMERIS_TYPE":0,"CLASSIFICATION_TYPE":"U","NORAD_CAT_ID":17567,"ELEMENT_SET_NO":999,"REV_AT_EPOCH":9405,"BSTAR":3.3725e-5,"MEAN_MOTION_DOT":3.22e-6,"MEAN_MOTION_DDOT":0},{"OBJECT_NAME":"COSMOS 1833","OBJECT_ID":"1987-027A","EPOCH":"2026-04-19T01:39:24.121152","MEAN_MOTION":14.13036536,"ECCENTRICITY":0.00224975,"INCLINATION":70.9161,"RA_OF_ASC_NODE":241.1396,"ARG_OF_PERICENTER":152.5096,"MEAN_ANOMALY":207.722,"EPHEMERIS_TYPE":0,"CLASSIFICATION_TYPE":"U","NORAD_CAT_ID":17589,"ELEMENT_SET_NO":999,"REV_AT_EPOCH":1602,"BSTAR":-0.0001235279,"MEAN_MOTION_DOT":-2.79e-6,"MEAN_MOTION_DDOT":0},{"OBJECT_NAME":"SL-16 R/B","OBJECT_ID":"1987-027B","EPOCH":"2026-04-19T04:59:07.235232","MEAN_MOTION":14.17168582,"ECCENTRICITY":0.0003286,"INCLINATION":71.003,"RA_OF_ASC_NODE":191.1123,"ARG_OF_PERICENTER":39.9394,"MEAN_ANOMALY":320.1971,"EPHEMERIS_TYPE":0,"CLASSIFICATION_TYPE":"U","NORAD_CAT_ID":17590,"ELEMENT_SET_NO":999,"REV_AT_EPOCH":2108,"BSTAR":1.740659e-5,"MEAN_MOTION_DOT":-1.3e-7,"MEAN_MOTION_DDOT":0},{"OBJECT_NAME":"SL-14 R/B","OBJECT_ID":"1987-038B","EPOCH":"2026-04-19T02:52:02.680608","MEAN_MOTION":14.85405619,"ECCENTRICITY":0.00200463,"INCLINATION":82.4992,"RA_OF_ASC_NODE":258.7083,"ARG_OF_PERICENTER":34.8932,"MEAN_ANOMALY":325.3594,"EPHEMERIS_TYPE":0,"CLASSIFICATION_TYPE":"U","NORAD_CAT_ID":17912,"ELEMENT_SET_NO":999,"REV_AT_EPOCH":8523,"BSTAR":3.040755e-5,"MEAN_MOTION_DOT":2.87e-6,"MEAN_MOTION_DDOT":0},{"OBJECT_NAME":"COSMOS 1844","OBJECT_ID":"1987-041A","EPOCH":"2026-04-18T23:45:54.844704","MEAN_MOTION":14.14563142,"ECCENTRICITY":0.00325048,"INCLINATION":70.8973,"RA_OF_ASC_NODE":309.173,"ARG_OF_PERICENTER":318.7233,"MEAN_ANOMALY":41.1432,"EPHEMERIS_TYPE":0,"CLASSIFICATION_TYPE":"U","NORAD_CAT_ID":17973,"ELEMENT_SET_NO":999,"REV_AT_EPOCH":928,"BSTAR":-9.0082145e-5,"MEAN_MOTION_DOT":-2.22e-6,"MEAN_MOTION_DDOT":0},{"OBJECT_NAME":"SL-14 R/B","OBJECT_ID":"1987-055B","EPOCH":"2026-04-19T00:31:31.827360","MEAN_MOTION":14.85664691,"ECCENTRICITY":0.00193202,"INCLINATION":82.4972,"RA_OF_ASC_NODE":311.0155,"ARG_OF_PERICENTER":238.0834,"MEAN_ANOMALY":121.8503,"EPHEMERIS_TYPE":0,"CLASSIFICATION_TYPE":"U","NORAD_CAT_ID":18153,"ELEMENT_SET_NO":999,"REV_AT_EPOCH":7592,"BSTAR":2.9243203e-5,"MEAN_MOTION_DOT":2.78e-6,"MEAN_MOTION_DDOT":0},{"OBJECT_NAME":"COSMOS 1867","OBJECT_ID":"1987-060A","EPOCH":"2026-04-19T05:46:04.080000","MEAN_MOTION":14.31508983,"ECCENTRICITY":0.00152579,"INCLINATION":65.0108,"RA_OF_ASC_NODE":193.141,"ARG_OF_PERICENTER":280.7583,"MEAN_ANOMALY":79.1784,"EPHEMERIS_TYPE":0,"CLASSIFICATION_TYPE":"U","NORAD_CAT_ID":18187,"ELEMENT_SET_NO":999,"REV_AT_EPOCH":2574,"BSTAR":2.2148088e-5,"MEAN_MOTION_DOT":-4.1e-7,"MEAN_MOTION_DDOT":0},{"OBJECT_NAME":"SL-14 R/B","OBJECT_ID":"1988-001B","EPOCH":"2026-04-19T02:05:50.269632","MEAN_MOTION":14.85566704,"ECCENTRICITY":0.00196186,"INCLINATION":82.5135,"RA_OF_ASC_NODE":157.3745,"ARG_OF_PERICENTER":103.8826,"MEAN_ANOMALY":256.4575,"EPHEMERIS_TYPE":0,"CLASSIFICATION_TYPE":"U","NORAD_CAT_ID":18749,"ELEMENT_SET_NO":999,"REV_AT_EPOCH":4802,"BSTAR":2.9748439e-5,"MEAN_MOTION_DOT":2.83e-6,"MEAN_MOTION_DDOT":0},{"OBJECT_NAME":"COSMOS 1933","OBJECT_ID":"1988-020A","EPOCH":"2026-04-19T06:12:59.620896","MEAN_MOTION":15.18349944,"ECCENTRICITY":0.00052877,"INCLINATION":82.5153,"RA_OF_ASC_NODE":210.7658,"ARG_OF_PERICENTER":69.8246,"MEAN_ANOMALY":290.3556,"EPHEMERIS_TYPE":0,"CLASSIFICATION_TYPE":"U","NORAD_CAT_ID":18958,"ELEMENT_SET_NO":999,"REV_AT_EPOCH":5638,"BSTAR":0.0001247999,"MEAN_MOTION_DOT":2.594e-5,"MEAN_MOTION_DDOT":0},{"OBJECT_NAME":"SL-3 R/B","OBJECT_ID":"1988-032B","EPOCH":"2026-04-19T05:10:05.785536","MEAN_MOTION":15.20331197,"ECCENTRICITY":0.00276794,"INCLINATION":97.5235,"RA_OF_ASC_NODE":92.3505,"ARG_OF_PERICENTER":92.62,"MEAN_ANOMALY":267.8204,"EPHEMERIS_TYPE":0,"CLASSIFICATION_TYPE":"U","NORAD_CAT_ID":19046,"ELEMENT_SET_NO":999,"REV_AT_EPOCH":5826,"BSTAR":0.00018319139,"MEAN_MOTION_DOT":3.952e-5,"MEAN_MOTION_DDOT":0},{"OBJECT_NAME":"SL-16 R/B","OBJECT_ID":"1988-039B","EPOCH":"2026-04-19T01:45:48.174336","MEAN_MOTION":14.19622696,"ECCENTRICITY":0.00240755,"INCLINATION":71.0161,"RA_OF_ASC_NODE":343.1582,"ARG_OF_PERICENTER":277.171,"MEAN_ANOMALY":82.6678,"EPHEMERIS_TYPE":0,"CLASSIFICATION_TYPE":"U","NORAD_CAT_ID":19120,"ELEMENT_SET_NO":999,"REV_AT_EPOCH":96411,"BSTAR":-3.3615722e-5,"MEAN_MOTION_DOT":-1.2e-6,"MEAN_MOTION_DDOT":0},{"OBJECT_NAME":"COSMOS 1953","OBJECT_ID":"1988-050A","EPOCH":"2026-04-19T06:29:39.607584","MEAN_MOTION":15.29128295,"ECCENTRICITY":0.00102018,"INCLINATION":82.5045,"RA_OF_ASC_NODE":117.4046,"ARG_OF_PERICENTER":351.707,"MEAN_ANOMALY":8.3999,"EPHEMERIS_TYPE":0,"CLASSIFICATION_TYPE":"U","NORAD_CAT_ID":19210,"ELEMENT_SET_NO":999,"REV_AT_EPOCH":4398,"BSTAR":0.0002403471,"MEAN_MOTION_DOT":6.836e-5,"MEAN_MOTION_DDOT":0}]
