SL-14 R/B               
1 16496U 86006B   26109.30324575  .00000562  00000+0  56648-4 0  9998
2 16496  82.5285 221.5128 0077541 137.2861 223.4420 14.86883141155249
COSMOS 1743             
1 16719U 86034A   26109.04510670  .00042787  00000+0  48688-3 0  9990
2 16719  82.5329  31.3653 0007293 118.6671 241.5321 15.62067598186548
SL-14 R/B               
1 16792U 86046B   26109.21980906  .00000331  00000+0  35230-4 0  9995
2 16792  82.4839  41.8844 0024686  93.7602 266.6438 14.85629321132421
SL-14 R/B               
1 16882U 86055B   26109.20444448  .00000306  00000+0  32410-4 0  9999
2 16882  82.5178  88.5791 0018441 193.3997 177.1174 14.85677950125384
AJISAI (EGS)            
1 16908U 86061A   26109.27993356 -.00000088  00000+0  63948-4 0  9997
2 16908  50.0110 328.5357 0011408  31.2390  80.3970 12.44515843473051
SL-14 R/B               
1 17567U 87024B   26108.56518183  .00000322  00000+0  33725-4 0  9991
2 17567  82.5288  55.2792 0019507 125.7281 234.5754 14.86170086 94058
COSMOS 1833             
1 17589U 87027A   26109.06902918 -.00000279  00000+0 -12353-3 0  9993
2 17589  70.9161 241.1396 0022497 152.5096 207.7220 14.13036536 16025
SL-16 R/B               
1 17590U 87027B   26109.20772263 -.00000013  00000+0  17407-4 0  9990
2 17590  71.0030 191.1123 0003286  39.9394 320.1971 14.17168582 21086
SL-14 R/B               
1 17912U 87038B   26109.11947547  .00000287  00000+0  30408-4 0  9997
2 17912  82.4992 258.7083 0020046  34.8932 325.3594 14.85405619 85232
COSMOS 1844             
1 17973U 87041A   26108.99021811 -.00000222  00000+0 -90082-4 0  9995
2 17973  70.8973 309.1730 0032504 318.7233  41.1432 14.14563142  9282
SL-14 R/B               
1 18153U 87055B   26109.02189615  .00000278  00000+0  29243-4 0  9993
2 18153  82.4972 311.0155 0019320 238.0834 121.8503 14.85664691 75924
COSMOS 1867             
1 18187U 87060A   26109.24032500 -.00000041  00000+0  22148-4 0  9996
2 18187  65.0108 193.1410 0015257 280.7583  79.1784 14.31508983 25745
SL-14 R/B               
1 18749U 88001B   26109.08738738  .00000283  00000+0  29748-4 0  9994
2 18749  82.5135 157.3745 0019618 103.8826 256.4575 14.85566704 48024
COSMOS 1933             
1 18958U 88020A   26109.25902339  .00002594  00000+0  12480-3 0  9997
2 18958  82.5153 210.7658 0005287  69.8246 290.3556 15.18349944 56383
SL-3 R/B                
1 19046U 88032B   26109.21534474  .00003952  00000+0  18319-3 0  9992
2 19046  97.5235  92.3505 0027679  92.6200 267.8204 15.20331197 58269
SL-16 R/B               
1 19120U 88039B   26109.07347424 -.00000120  00000+0 -33616-4 0  9997
2 19120  71.0161 343.1582 0024075 277.1710  82.6678 14.19622696964114
COSMOS 1953             
1 19210U 88050A   26109.27059731  .00006836  00000+0  24035-3 0  9995
2 19210  82.5045 117.4046 0010201 351.7070   8.3999 15.29128295 43985
